[{"OBJECT_NAME":"CONTINUUM-1","OBJECT_ID":"2023-001AN","EPOCH":"2026-03-09T23:17:35.458656","MEAN_MOTION":15.27981258,"ECCENTRICITY":0.00109493,"INCLINATION":97.3456,"RA_OF_ASC_NODE":133.3964,"ARG_OF_PERICENTER":60.1976,"MEAN_ANOMALY":300.0351,"EPHEMERIS_TYPE":0,"CLASSIFICATION_TYPE":"U","NORAD_CAT_ID":55045,"ELEMENT_SET_NO":999,"REV_AT_EPOCH":17709,"BSTAR":0.00052859897,"MEAN_MOTION_DOT":0.00014395,"MEAN_MOTION_DDOT":0},{"OBJECT_NAME":"STARLINK-30707","OBJECT_ID":"2023-148Q","EPOCH":"2026-03-09T04:29:20.218848","MEAN_MOTION":15.30207328,"ECCENTRICITY":7.842e-5,"INCLINATION":53.1613,"RA_OF_ASC_NODE":26.7399,"ARG_OF_PERICENTER":97.4654,"MEAN_ANOMALY":262.6436,"EPHEMERIS_TYPE":0,"CLASSIFICATION_TYPE":"U","NORAD_CAT_ID":57949,"ELEMENT_SET_NO":999,"REV_AT_EPOCH":13834,"BSTAR":-0.00012185983,"MEAN_MOTION_DOT":-3.967e-5,"MEAN_MOTION_DDOT":0}]
